[{"OBJECT_NAME":"QIANFAN-104","OBJECT_ID":"2025-233P","EPOCH":"2026-03-09T22:37:03.406656","MEAN_MOTION":13.51010539,"ECCENTRICITY":0.00021082,"INCLINATION":88.9948,"RA_OF_ASC_NODE":53.1192,"ARG_OF_PERICENTER":85.1349,"MEAN_ANOMALY":275.0043,"EPHEMERIS_TYPE":0,"CLASSIFICATION_TYPE":"U","NORAD_CAT_ID":66046,"ELEMENT_SET_NO":999,"REV_AT_EPOCH":1983,"BSTAR":7.1555693e-5,"MEAN_MOTION_DOT":5.8e-7,"MEAN_MOTION_DDOT":0},{"OBJECT_NAME":"THOR ABLESTAR DEB","OBJECT_ID":"1965-065A","EPOCH":"2026-03-09T22:55:19.751808","MEAN_MOTION":13.40369766,"ECCENTRICITY":0.00673572,"INCLINATION":89.954,"RA_OF_ASC_NODE":242.0283,"ARG_OF_PERICENTER":139.0764,"MEAN_ANOMALY":350.4793,"EPHEMERIS_TYPE":0,"CLASSIFICATION_TYPE":"U","NORAD_CAT_ID":1504,"ELEMENT_SET_NO":999,"REV_AT_EPOCH":95441,"BSTAR":0.00043400061,"MEAN_MOTION_DOT":2.5e-6,"MEAN_MOTION_DDOT":0}]
